{
  "type": "FeatureCollection",
  "features": [
    {
      "type": "Feature",
      "properties": {
        "norad_id": 27954,
        "name": "GALAXY 13 (HORIZONS-1)",
        "group": "intelsat",
        "lat": 0.863716304083879,
        "lon": 159.70202812143427,
        "alt_km": 35785.35265302298,
        "timestamp": "2025-12-03T15:48:02.768912+00:00",
        "meta_object_name": "GALAXY 13 (HORIZONS-1)",
        "meta_object_id": "2003-044A",
        "meta_epoch": "2025-12-03T06:11:37.811328",
        "meta_mean_motion": 1.00272458,
        "meta_eccentricity": 0.00020776,
        "meta_inclination": 0.9111,
        "meta_ra_of_asc_node": 86.5879,
        "meta_arg_of_pericenter": 160.6153,
        "meta_mean_anomaly": 128.0482,
        "meta_ephemeris_type": 0,
        "meta_classification_type": "U",
        "meta_norad_cat_id": 27954,
        "meta_element_set_no": 999,
        "meta_rev_at_epoch": 4460,
        "meta_bstar": 0,
        "meta_mean_motion_dot": 1.51e-06,
        "meta_mean_motion_ddot": 0,
        "tle_line1": "1 27954U 03044A   25337.25807652  .00000151  00000+0  00000+0 0  9998",
        "tle_line2": "2 27954   0.9111  86.5879 0002077 160.6153 128.0482  1.00272458 44600"
      },
      "geometry": {
        "type": "Point",
        "coordinates": [
          159.70202812143427,
          0.863716304083879
        ]
      }
    },
    {
      "type": "Feature",
      "properties": {
        "norad_id": 28358,
        "name": "INTELSAT 10-02",
        "group": "intelsat",
        "lat": -0.024031470920806833,
        "lon": -51.25457739703702,
        "alt_km": 35782.13227671269,
        "timestamp": "2025-12-03T15:48:02.768923+00:00",
        "meta_object_name": "INTELSAT 10-02",
        "meta_object_id": "2004-022A",
        "meta_epoch": "2025-12-02T21:31:38.613216",
        "meta_mean_motion": 1.00271045,
        "meta_eccentricity": 0.00011344,
        "meta_inclination": 0.0398,
        "meta_ra_of_asc_node": 86.235,
        "meta_arg_of_pericenter": 192.2439,
        "meta_mean_anomaly": 115.4352,
        "meta_ephemeris_type": 0,
        "meta_classification_type": "U",
        "meta_norad_cat_id": 28358,
        "meta_element_set_no": 999,
        "meta_rev_at_epoch": 7858,
        "meta_bstar": 0,
        "meta_mean_motion_dot": 9e-08,
        "meta_mean_motion_ddot": 0,
        "tle_line1": "1 28358U 04022A   25336.89697469  .00000009  00000+0  00000+0 0  9998",
        "tle_line2": "2 28358   0.0398  86.2350 0001134 192.2439 115.4352  1.00271045 78580"
      },
      "geometry": {
        "type": "Point",
        "coordinates": [
          -51.25457739703702,
          -0.024031470920806833
        ]
      }
    },
    {
      "type": "Feature",
      "properties": {
        "norad_id": 28626,
        "name": "XM-3 (RHYTHM)",
        "group": "intelsat",
        "lat": 0.08074822965127186,
        "lon": 107.13322184145737,
        "alt_km": 36161.15497588384,
        "timestamp": "2025-12-03T15:48:02.768934+00:00",
        "meta_object_name": "XM-3 (RHYTHM)",
        "meta_object_id": "2005-008A",
        "meta_epoch": "2025-12-02T19:08:10.315968",
        "meta_mean_motion": 0.98955046,
        "meta_eccentricity": 8.644e-05,
        "meta_inclination": 0.1467,
        "meta_ra_of_asc_node": 80.743,
        "meta_arg_of_pericenter": 265.9206,
        "meta_mean_anomaly": 173.7506,
        "meta_ephemeris_type": 0,
        "meta_classification_type": "U",
        "meta_norad_cat_id": 28626,
        "meta_element_set_no": 999,
        "meta_rev_at_epoch": 4065,
        "meta_bstar": 0,
        "meta_mean_motion_dot": -2.32e-06,
        "meta_mean_motion_ddot": 0,
        "tle_line1": "1 28626U 05008A   25336.79734162 -.00000232  00000+0  00000+0 0  9991",
        "tle_line2": "2 28626   0.1467  80.7430 0000864 265.9206 173.7506  0.98955046 40654"
      },
      "geometry": {
        "type": "Point",
        "coordinates": [
          107.13322184145737,
          0.08074822965127186
        ]
      }
    },
    {
      "type": "Feature",
      "properties": {
        "norad_id": 28659,
        "name": "DIRECTV 8",
        "group": "intelsat",
        "lat": -0.034795999192211574,
        "lon": -169.34173291003665,
        "alt_km": 35781.344796220146,
        "timestamp": "2025-12-03T15:48:02.768945+00:00",
        "meta_object_name": "DIRECTV 8",
        "meta_object_id": "2005-019A",
        "meta_epoch": "2025-12-03T06:20:29.461632",
        "meta_mean_motion": 1.00271354,
        "meta_eccentricity": 0.00033056,
        "meta_inclination": 0.0155,
        "meta_ra_of_asc_node": 307.5844,
        "meta_arg_of_pericenter": 312.9543,
        "meta_mean_anomaly": 147.9034,
        "meta_ephemeris_type": 0,
        "meta_classification_type": "U",
        "meta_norad_cat_id": 28659,
        "meta_element_set_no": 999,
        "meta_rev_at_epoch": 7510,
        "meta_bstar": 0,
        "meta_mean_motion_dot": 2e-07,
        "meta_mean_motion_ddot": 0,
        "tle_line1": "1 28659U 05019A   25337.26422988  .00000020  00000+0  00000+0 0  9996",
        "tle_line2": "2 28659   0.0155 307.5844 0003305 312.9543 147.9034  1.00271354 75106"
      },
      "geometry": {
        "type": "Point",
        "coordinates": [
          -169.34173291003665,
          -0.034795999192211574
        ]
      }
    },
    {
      "type": "Feature",
      "properties": {
        "norad_id": 28702,
        "name": "GALAXY 28 (G-28)",
        "group": "intelsat",
        "lat": 1.7841866072327603,
        "lon": -138.9457631178291,
        "alt_km": 35775.98323016291,
        "timestamp": "2025-12-03T15:48:02.768956+00:00",
        "meta_object_name": "GALAXY 28 (G-28)",
        "meta_object_id": "2005-022A",
        "meta_epoch": "2025-12-03T06:29:06.137088",
        "meta_mean_motion": 1.00272277,
        "meta_eccentricity": 0.00026526,
        "meta_inclination": 2.7945,
        "meta_ra_of_asc_node": 81.3907,
        "meta_arg_of_pericenter": 169.4505,
        "meta_mean_anomaly": 190.0951,
        "meta_ephemeris_type": 0,
        "meta_classification_type": "U",
        "meta_norad_cat_id": 28702,
        "meta_element_set_no": 999,
        "meta_rev_at_epoch": 5000,
        "meta_bstar": 0,
        "meta_mean_motion_dot": -1.7e-06,
        "meta_mean_motion_ddot": 0,
        "tle_line1": "1 28702U 05022A   25337.27020992 -.00000170  00000+0  00000+0 0  9996",
        "tle_line2": "2 28702   2.7945  81.3907 0002652 169.4505 190.0951  1.00272277 50009"
      },
      "geometry": {
        "type": "Point",
        "coordinates": [
          -138.9457631178291,
          1.7841866072327603
        ]
      }
    },
    {
      "type": "Feature",
      "properties": {
        "norad_id": 29236,
        "name": "GALAXY 16 (G-16)",
        "group": "intelsat",
        "lat": -0.018953735965622307,
        "lon": -149.30334650159986,
        "alt_km": 35777.699039911204,
        "timestamp": "2025-12-03T15:48:02.768966+00:00",
        "meta_object_name": "GALAXY 16 (G-16)",
        "meta_object_id": "2006-023A",
        "meta_epoch": "2025-12-03T06:26:06.424224",
        "meta_mean_motion": 1.00270146,
        "meta_eccentricity": 0.00029065,
        "meta_inclination": 0.0257,
        "meta_ra_of_asc_node": 218.47,
        "meta_arg_of_pericenter": 36.3129,
        "meta_mean_anomaly": 175.0947,
        "meta_ephemeris_type": 0,
        "meta_classification_type": "U",
        "meta_norad_cat_id": 29236,
        "meta_element_set_no": 999,
        "meta_rev_at_epoch": 7100,
        "meta_bstar": 0,
        "meta_mean_motion_dot": -1.08e-06,
        "meta_mean_motion_ddot": 0,
        "tle_line1": "1 29236U 06023A   25337.26812991 -.00000108  00000+0  00000+0 0  9999",
        "tle_line2": "2 29236   0.0257 218.4700 0002906  36.3129 175.0947  1.00270146 71003"
      },
      "geometry": {
        "type": "Point",
        "coordinates": [
          -149.30334650159986,
          -0.018953735965622307
        ]
      }
    },
    {
      "type": "Feature",
      "properties": {
        "norad_id": 29494,
        "name": "DIRECTV 9S",
        "group": "intelsat",
        "lat": 1.5402049568872886,
        "lon": -151.47954356189427,
        "alt_km": 35776.27032064441,
        "timestamp": "2025-12-03T15:48:02.768977+00:00",
        "meta_object_name": "DIRECTV 9S",
        "meta_object_id": "2006-043A",
        "meta_epoch": "2025-12-03T06:25:28.983648",
        "meta_mean_motion": 1.00270592,
        "meta_eccentricity": 0.00031994,
        "meta_inclination": 1.9138,
        "meta_ra_of_asc_node": 83.3117,
        "meta_arg_of_pericenter": 167.9889,
        "meta_mean_anomaly": 176.2269,
        "meta_ephemeris_type": 0,
        "meta_classification_type": "U",
        "meta_norad_cat_id": 29494,
        "meta_element_set_no": 999,
        "meta_rev_at_epoch": 4941,
        "meta_bstar": 0,
        "meta_mean_motion_dot": -9.5e-07,
        "meta_mean_motion_ddot": 0,
        "tle_line1": "1 29494U 06043A   25337.26769657 -.00000095  00000+0  00000+0 0  9992",
        "tle_line2": "2 29494   1.9138  83.3117 0003199 167.9889 176.2269  1.00270592 49412"
      },
      "geometry": {
        "type": "Point",
        "coordinates": [
          -151.47954356189427,
          1.5402049568872886
        ]
      }
    }
  ]
}